{"fetched_at":"2026-03-29T16:36:15Z","count":15609,"tles":[{"name":"STARLINK-31049","line1":"1 58543U 23192N   26087.89692924  .00001357  00000+0  57924-4 0  9990","line2":"2 58543  53.1613 333.6972 0001271  93.4264 266.6882 15.30198117128924","category":"Starlink"}]}